<?xml version="1.0" encoding="UTF-8"?>
<ndm xmlns:xsi="http://www.w3.org/2001/XMLSchema-instance" xsi:noNamespaceSchemaLocation="https://sanaregistry.org/r/ndmxml_unqualified/ndmxml-2.0.0-master-2.0.xsd">
<omm id="CCSDS_OMM_VERS" version="2.0">
<header><CREATION_DATE/><ORIGINATOR/></header><body><segment><metadata><OBJECT_NAME>ONEWEB-0435</OBJECT_NAME><OBJECT_ID>2022-012L</OBJECT_ID><CENTER_NAME>EARTH</CENTER_NAME><REF_FRAME>TEME</REF_FRAME><TIME_SYSTEM>UTC</TIME_SYSTEM><MEAN_ELEMENT_THEORY>SGP4</MEAN_ELEMENT_THEORY></metadata><data><meanElements><EPOCH>2025-10-23T02:32:01.164192</EPOCH><MEAN_MOTION>13.10369441</MEAN_MOTION><ECCENTRICITY>.0001611</ECCENTRICITY><INCLINATION>87.8761</INCLINATION><RA_OF_ASC_NODE>83.5489</RA_OF_ASC_NODE><ARG_OF_PERICENTER>109.3920</ARG_OF_PERICENTER><MEAN_ANOMALY>250.7382</MEAN_ANOMALY></meanElements><tleParameters><EPHEMERIS_TYPE>0</EPHEMERIS_TYPE><CLASSIFICATION_TYPE>U</CLASSIFICATION_TYPE><NORAD_CAT_ID>51632</NORAD_CAT_ID><ELEMENT_SET_NO>999</ELEMENT_SET_NO><REV_AT_EPOCH>17826</REV_AT_EPOCH><BSTAR>.12923E-2</BSTAR><MEAN_MOTION_DOT>.464E-5</MEAN_MOTION_DOT><MEAN_MOTION_DDOT>0</MEAN_MOTION_DDOT></tleParameters></data></segment></body></omm>
<omm id="CCSDS_OMM_VERS" version="2.0">
<header><CREATION_DATE/><ORIGINATOR/></header><body><segment><metadata><OBJECT_NAME>ONEWEB-0436</OBJECT_NAME><OBJECT_ID>2022-012M</OBJECT_ID><CENTER_NAME>EARTH</CENTER_NAME><REF_FRAME>TEME</REF_FRAME><TIME_SYSTEM>UTC</TIME_SYSTEM><MEAN_ELEMENT_THEORY>SGP4</MEAN_ELEMENT_THEORY></metadata><data><meanElements><EPOCH>2025-10-23T01:31:32.473056</EPOCH><MEAN_MOTION>13.17649395</MEAN_MOTION><ECCENTRICITY>.0001823</ECCENTRICITY><INCLINATION>87.9117</INCLINATION><RA_OF_ASC_NODE>52.9861</RA_OF_ASC_NODE><ARG_OF_PERICENTER>106.3692</ARG_OF_PERICENTER><MEAN_ANOMALY>253.7640</MEAN_ANOMALY></meanElements><tleParameters><EPHEMERIS_TYPE>0</EPHEMERIS_TYPE><CLASSIFICATION_TYPE>U</CLASSIFICATION_TYPE><NORAD_CAT_ID>51633</NORAD_CAT_ID><ELEMENT_SET_NO>999</ELEMENT_SET_NO><REV_AT_EPOCH>18245</REV_AT_EPOCH><BSTAR>-.14079E-3</BSTAR><MEAN_MOTION_DOT>-.42E-6</MEAN_MOTION_DOT><MEAN_MOTION_DDOT>0</MEAN_MOTION_DDOT></tleParameters></data></segment></body></omm>
<omm id="CCSDS_OMM_VERS" version="2.0">
<header><CREATION_DATE/><ORIGINATOR/></header><body><segment><metadata><OBJECT_NAME>ONEWEB-0438</OBJECT_NAME><OBJECT_ID>2022-012N</OBJECT_ID><CENTER_NAME>EARTH</CENTER_NAME><REF_FRAME>TEME</REF_FRAME><TIME_SYSTEM>UTC</TIME_SYSTEM><MEAN_ELEMENT_THEORY>SGP4</MEAN_ELEMENT_THEORY></metadata><data><meanElements><EPOCH>2025-10-22T11:28:29.167968</EPOCH><MEAN_MOTION>13.10373470</MEAN_MOTION><ECCENTRICITY>.00014967</ECCENTRICITY><INCLINATION>87.8763</INCLINATION><RA_OF_ASC_NODE>83.6747</RA_OF_ASC_NODE><ARG_OF_PERICENTER>88.9192</ARG_OF_PERICENTER><MEAN_ANOMALY>271.2106</MEAN_ANOMALY></meanElements><tleParameters><EPHEMERIS_TYPE>0</EPHEMERIS_TYPE><CLASSIFICATION_TYPE>U</CLASSIFICATION_TYPE><NORAD_CAT_ID>51634</NORAD_CAT_ID><ELEMENT_SET_NO>999</ELEMENT_SET_NO><REV_AT_EPOCH>17821</REV_AT_EPOCH><BSTAR>.18680976E-2</BSTAR><MEAN_MOTION_DOT>.665E-5</MEAN_MOTION_DOT><MEAN_MOTION_DDOT>0</MEAN_MOTION_DDOT></tleParameters></data></segment></body></omm>
<omm id="CCSDS_OMM_VERS" version="2.0">
<header><CREATION_DATE/><ORIGINATOR/></header><body><segment><metadata><OBJECT_NAME>ONEWEB-0439</OBJECT_NAME><OBJECT_ID>2022-012P</OBJECT_ID><CENTER_NAME>EARTH</CENTER_NAME><REF_FRAME>TEME</REF_FRAME><TIME_SYSTEM>UTC</TIME_SYSTEM><MEAN_ELEMENT_THEORY>SGP4</MEAN_ELEMENT_THEORY></metadata><data><meanElements><EPOCH>2025-10-22T20:43:02.500032</EPOCH><MEAN_MOTION>13.10372942</MEAN_MOTION><ECCENTRICITY>.0001525</ECCENTRICITY><INCLINATION>87.8762</INCLINATION><RA_OF_ASC_NODE>83.5867</RA_OF_ASC_NODE><ARG_OF_PERICENTER>95.3136</ARG_OF_PERICENTER><MEAN_ANOMALY>264.8165</MEAN_ANOMALY></meanElements><tleParameters><EPHEMERIS_TYPE>0</EPHEMERIS_TYPE><CLASSIFICATION_TYPE>U</CLASSIFICATION_TYPE><NORAD_CAT_ID>51635</NORAD_CAT_ID><ELEMENT_SET_NO>999</ELEMENT_SET_NO><REV_AT_EPOCH>17824</REV_AT_EPOCH><BSTAR>.17435E-2</BSTAR><MEAN_MOTION_DOT>.621E-5</MEAN_MOTION_DOT><MEAN_MOTION_DDOT>0</MEAN_MOTION_DDOT></tleParameters></data></segment></body></omm>
<omm id="CCSDS_OMM_VERS" version="2.0">
<header><CREATION_DATE/><ORIGINATOR/></header><body><segment><metadata><OBJECT_NAME>ONEWEB-0442</OBJECT_NAME><OBJECT_ID>2022-012Q</OBJECT_ID><CENTER_NAME>EARTH</CENTER_NAME><REF_FRAME>TEME</REF_FRAME><TIME_SYSTEM>UTC</TIME_SYSTEM><MEAN_ELEMENT_THEORY>SGP4</MEAN_ELEMENT_THEORY></metadata><data><meanElements><EPOCH>2025-10-22T08:56:27.049056</EPOCH><MEAN_MOTION>13.17647754</MEAN_MOTION><ECCENTRICITY>.00016534</ECCENTRICITY><INCLINATION>87.9108</INCLINATION><RA_OF_ASC_NODE>53.1756</RA_OF_ASC_NODE><ARG_OF_PERICENTER>77.7267</ARG_OF_PERICENTER><MEAN_ANOMALY>282.4049</MEAN_ANOMALY></meanElements><tleParameters><EPHEMERIS_TYPE>0</EPHEMERIS_TYPE><CLASSIFICATION_TYPE>U</CLASSIFICATION_TYPE><NORAD_CAT_ID>51636</NORAD_CAT_ID><ELEMENT_SET_NO>999</ELEMENT_SET_NO><REV_AT_EPOCH>18235</REV_AT_EPOCH><BSTAR>.23169338E-4</BSTAR><MEAN_MOTION_DOT>.22E-6</MEAN_MOTION_DOT><MEAN_MOTION_DDOT>0</MEAN_MOTION_DDOT></tleParameters></data></segment></body></omm>
<omm id="CCSDS_OMM_VERS" version="2.0">
<header><CREATION_DATE/><ORIGINATOR/></header><body><segment><metadata><OBJECT_NAME>ONEWEB-0443</OBJECT_NAME><OBJECT_ID>2022-012R</OBJECT_ID><CENTER_NAME>EARTH</CENTER_NAME><REF_FRAME>TEME</REF_FRAME><TIME_SYSTEM>UTC</TIME_SYSTEM><MEAN_ELEMENT_THEORY>SGP4</MEAN_ELEMENT_THEORY></metadata><data><meanElements><EPOCH>2025-10-23T01:48:32.305824</EPOCH><MEAN_MOTION>13.17647968</MEAN_MOTION><ECCENTRICITY>.000135</ECCENTRICITY><INCLINATION>87.9106</INCLINATION><RA_OF_ASC_NODE>53.0421</RA_OF_ASC_NODE><ARG_OF_PERICENTER>97.6933</ARG_OF_PERICENTER><MEAN_ANOMALY>262.4352</MEAN_ANOMALY></meanElements><tleParameters><EPHEMERIS_TYPE>0</EPHEMERIS_TYPE><CLASSIFICATION_TYPE>U</CLASSIFICATION_TYPE><NORAD_CAT_ID>51637</NORAD_CAT_ID><ELEMENT_SET_NO>999</ELEMENT_SET_NO><REV_AT_EPOCH>18249</REV_AT_EPOCH><BSTAR>.97469E-4</BSTAR><MEAN_MOTION_DOT>.51E-6</MEAN_MOTION_DOT><MEAN_MOTION_DDOT>0</MEAN_MOTION_DDOT></tleParameters></data></segment></body></omm>
<omm id="CCSDS_OMM_VERS" version="2.0">
<header><CREATION_DATE/><ORIGINATOR/></header><body><segment><metadata><OBJECT_NAME>ONEWEB-0444</OBJECT_NAME><OBJECT_ID>2022-012S</OBJECT_ID><CENTER_NAME>EARTH</CENTER_NAME><REF_FRAME>TEME</REF_FRAME><TIME_SYSTEM>UTC</TIME_SYSTEM><MEAN_ELEMENT_THEORY>SGP4</MEAN_ELEMENT_THEORY></metadata><data><meanElements><EPOCH>2025-10-23T03:48:29.559744</EPOCH><MEAN_MOTION>13.10373395</MEAN_MOTION><ECCENTRICITY>.0001581</ECCENTRICITY><INCLINATION>87.8762</INCLINATION><RA_OF_ASC_NODE>83.5267</RA_OF_ASC_NODE><ARG_OF_PERICENTER>96.0985</ARG_OF_PERICENTER><MEAN_ANOMALY>264.0323</MEAN_ANOMALY></meanElements><tleParameters><EPHEMERIS_TYPE>0</EPHEMERIS_TYPE><CLASSIFICATION_TYPE>U</CLASSIFICATION_TYPE><NORAD_CAT_ID>51638</NORAD_CAT_ID><ELEMENT_SET_NO>999</ELEMENT_SET_NO><REV_AT_EPOCH>17829</REV_AT_EPOCH><BSTAR>.8143E-3</BSTAR><MEAN_MOTION_DOT>.297E-5</MEAN_MOTION_DOT><MEAN_MOTION_DDOT>0</MEAN_MOTION_DDOT></tleParameters></data></segment></body></omm>
<omm id="CCSDS_OMM_VERS" version="2.0">
<header><CREATION_DATE/><ORIGINATOR/></header><body><segment><metadata><OBJECT_NAME>ONEWEB-0445</OBJECT_NAME><OBJECT_ID>2022-012T</OBJECT_ID><CENTER_NAME>EARTH</CENTER_NAME><REF_FRAME>TEME</REF_FRAME><TIME_SYSTEM>UTC</TIME_SYSTEM><MEAN_ELEMENT_THEORY>SGP4</MEAN_ELEMENT_THEORY></metadata><data><meanElements><EPOCH>2025-10-23T02:29:37.646880</EPOCH><MEAN_MOTION>13.10369192</MEAN_MOTION><ECCENTRICITY>.0001746</ECCENTRICITY><INCLINATION>87.8775</INCLINATION><RA_OF_ASC_NODE>83.4972</RA_OF_ASC_NODE><ARG_OF_PERICENTER>90.3002</ARG_OF_PERICENTER><MEAN_ANOMALY>269.8325</MEAN_ANOMALY></meanElements><tleParameters><EPHEMERIS_TYPE>0</EPHEMERIS_TYPE><CLASSIFICATION_TYPE>U</CLASSIFICATION_TYPE><NORAD_CAT_ID>51639</NORAD_CAT_ID><ELEMENT_SET_NO>999</ELEMENT_SET_NO><REV_AT_EPOCH>17829</REV_AT_EPOCH><BSTAR>.14802E-2</BSTAR><MEAN_MOTION_DOT>.529E-5</MEAN_MOTION_DOT><MEAN_MOTION_DDOT>0</MEAN_MOTION_DDOT></tleParameters></data></segment></body></omm>

</ndm>
