ONEWEB-0435             
1 51632U 22012L   25296.10556903  .00000464  00000+0  12923-2 0  9999
2 51632  87.8761  83.5489 0001611 109.3920 250.7382 13.10369441178269
ONEWEB-0436             
1 51633U 22012M   25296.06357029 -.00000042  00000+0 -14079-3 0  9992
2 51633  87.9117  52.9861 0001823 106.3692 253.7640 13.17649395182450
ONEWEB-0438             
1 51634U 22012N   25295.47811537  .00000665  00000+0  18681-2 0  9997
2 51634  87.8763  83.6747 0001496  88.9192 271.2106 13.10373470178219
ONEWEB-0439             
1 51635U 22012P   25295.86322338  .00000621  00000+0  17435-2 0  9995
2 51635  87.8762  83.5867 0001525  95.3136 264.8165 13.10372942178243
ONEWEB-0442             
1 51636U 22012Q   25295.37253529  .00000022  00000+0  23169-4 0  9995
2 51636  87.9108  53.1756 0001653  77.7267 282.4049 13.17647754182357
ONEWEB-0443             
1 51637U 22012R   25296.07537391  .00000051  00000+0  97469-4 0  9992
2 51637  87.9106  53.0421 0001350  97.6933 262.4352 13.17647968182496
ONEWEB-0444             
1 51638U 22012S   25296.15867546  .00000297  00000+0  81430-3 0  9992
2 51638  87.8762  83.5267 0001581  96.0985 264.0323 13.10373395178298
ONEWEB-0445             
1 51639U 22012T   25296.10390795  .00000529  00000+0  14802-2 0  9991
2 51639  87.8775  83.4972 0001746  90.3002 269.8325 13.10369192178290
